[{"OBJECT_NAME":"STARLINK-31729","OBJECT_ID":"2024-080K","EPOCH":"2025-08-31T10:33:18.638784","MEAN_MOTION":15.27574235,"ECCENTRICITY":0.00011375,"INCLINATION":43.0019,"RA_OF_ASC_NODE":29.1138,"ARG_OF_PERICENTER":277.3977,"MEAN_ANOMALY":82.6745,"EPHEMERIS_TYPE":0,"CLASSIFICATION_TYPE":"U","NORAD_CAT_ID":59610,"ELEMENT_SET_NO":999,"REV_AT_EPOCH":7547,"BSTAR":5.3487553e-5,"MEAN_MOTION_DOT":1.21e-5,"MEAN_MOTION_DDOT":0},{"OBJECT_NAME":"STARLINK-31448","OBJECT_ID":"2024-080L","EPOCH":"2025-08-31T10:11:07.874016","MEAN_MOTION":15.27550653,"ECCENTRICITY":0.00012428,"INCLINATION":43.0023,"RA_OF_ASC_NODE":28.9962,"ARG_OF_PERICENTER":281.6908,"MEAN_ANOMALY":78.3804,"EPHEMERIS_TYPE":0,"CLASSIFICATION_TYPE":"U","NORAD_CAT_ID":59611,"ELEMENT_SET_NO":999,"REV_AT_EPOCH":7547,"BSTAR":-5.6687981e-5,"MEAN_MOTION_DOT":-1.82e-5,"MEAN_MOTION_DDOT":0},{"OBJECT_NAME":"STARLINK-31748","OBJECT_ID":"2024-080M","EPOCH":"2025-08-31T09:43:20.912160","MEAN_MOTION":15.27571587,"ECCENTRICITY":0.00010629,"INCLINATION":43.0031,"RA_OF_ASC_NODE":28.8533,"ARG_OF_PERICENTER":241.9073,"MEAN_ANOMALY":118.1672,"EPHEMERIS_TYPE":0,"CLASSIFICATION_TYPE":"U","NORAD_CAT_ID":59612,"ELEMENT_SET_NO":999,"REV_AT_EPOCH":7664,"BSTAR":0.00011425187,"MEAN_MOTION_DOT":2.882e-5,"MEAN_MOTION_DDOT":0},{"OBJECT_NAME":"STARLINK-31746","OBJECT_ID":"2024-080N","EPOCH":"2025-08-31T03:10:43.577184","MEAN_MOTION":15.27573455,"ECCENTRICITY":0.00012161,"INCLINATION":43.0025,"RA_OF_ASC_NODE":37.9988,"ARG_OF_PERICENTER":285.3798,"MEAN_ANOMALY":74.6919,"EPHEMERIS_TYPE":0,"CLASSIFICATION_TYPE":"U","NORAD_CAT_ID":59613,"ELEMENT_SET_NO":999,"REV_AT_EPOCH":7534,"BSTAR":4.5828057e-5,"MEAN_MOTION_DOT":9.99e-6,"MEAN_MOTION_DDOT":0},{"OBJECT_NAME":"STARLINK-31762","OBJECT_ID":"2024-080P","EPOCH":"2025-08-31T10:21:31.080672","MEAN_MOTION":15.27574478,"ECCENTRICITY":0.00012743,"INCLINATION":42.9968,"RA_OF_ASC_NODE":32.512,"ARG_OF_PERICENTER":80.7228,"MEAN_ANOMALY":279.3767,"EPHEMERIS_TYPE":0,"CLASSIFICATION_TYPE":"U","NORAD_CAT_ID":59614,"ELEMENT_SET_NO":999,"REV_AT_EPOCH":7543,"BSTAR":0.0001099443,"MEAN_MOTION_DOT":2.764e-5,"MEAN_MOTION_DDOT":0},{"OBJECT_NAME":"STARLINK-31761","OBJECT_ID":"2024-080Q","EPOCH":"2025-08-31T03:13:16.622688","MEAN_MOTION":15.27569934,"ECCENTRICITY":0.00012721,"INCLINATION":43.0061,"RA_OF_ASC_NODE":34.5289,"ARG_OF_PERICENTER":273.3019,"MEAN_ANOMALY":86.7687,"EPHEMERIS_TYPE":0,"CLASSIFICATION_TYPE":"U","NORAD_CAT_ID":59615,"ELEMENT_SET_NO":999,"REV_AT_EPOCH":7538,"BSTAR":3.7217212e-5,"MEAN_MOTION_DOT":7.62e-6,"MEAN_MOTION_DDOT":0},{"OBJECT_NAME":"STARLINK-31768","OBJECT_ID":"2024-080R","EPOCH":"2025-08-30T17:02:04.919424","MEAN_MOTION":15.27584808,"ECCENTRICITY":9.071e-5,"INCLINATION":43.0007,"RA_OF_ASC_NODE":36.5513,"ARG_OF_PERICENTER":269.6393,"MEAN_ANOMALY":90.4354,"EPHEMERIS_TYPE":0,"CLASSIFICATION_TYPE":"U","NORAD_CAT_ID":59616,"ELEMENT_SET_NO":999,"REV_AT_EPOCH":7532,"BSTAR":9.569081e-6,"MEAN_MOTION_DOT":1.0e-8,"MEAN_MOTION_DDOT":0},{"OBJECT_NAME":"STARLINK-31769","OBJECT_ID":"2024-080S","EPOCH":"2025-08-31T10:43:42.782016","MEAN_MOTION":15.2757821,"ECCENTRICITY":0.00012974,"INCLINATION":43.0012,"RA_OF_ASC_NODE":32.6253,"ARG_OF_PERICENTER":272.7956,"MEAN_ANOMALY":87.2747,"EPHEMERIS_TYPE":0,"CLASSIFICATION_TYPE":"U","NORAD_CAT_ID":59617,"ELEMENT_SET_NO":999,"REV_AT_EPOCH":7543,"BSTAR":8.252974e-5,"MEAN_MOTION_DOT":2.009e-5,"MEAN_MOTION_DDOT":0},{"OBJECT_NAME":"STARLINK-31784","OBJECT_ID":"2024-080T","EPOCH":"2025-08-31T02:50:23.586720","MEAN_MOTION":15.27567697,"ECCENTRICITY":0.00010485,"INCLINATION":43.0034,"RA_OF_ASC_NODE":37.9152,"ARG_OF_PERICENTER":299.5541,"MEAN_ANOMALY":60.5206,"EPHEMERIS_TYPE":0,"CLASSIFICATION_TYPE":"U","NORAD_CAT_ID":59618,"ELEMENT_SET_NO":999,"REV_AT_EPOCH":7534,"BSTAR":9.3128453e-5,"MEAN_MOTION_DOT":2.301e-5,"MEAN_MOTION_DDOT":0},{"OBJECT_NAME":"STARLINK-31777","OBJECT_ID":"2024-080U","EPOCH":"2025-08-31T10:46:44.101056","MEAN_MOTION":15.27558268,"ECCENTRICITY":0.00017581,"INCLINATION":43.0031,"RA_OF_ASC_NODE":36.0993,"ARG_OF_PERICENTER":275.1468,"MEAN_ANOMALY":84.9183,"EPHEMERIS_TYPE":0,"CLASSIFICATION_TYPE":"U","NORAD_CAT_ID":59619,"ELEMENT_SET_NO":999,"REV_AT_EPOCH":7539,"BSTAR":2.8235738e-5,"MEAN_MOTION_DOT":5.14e-6,"MEAN_MOTION_DDOT":0},{"OBJECT_NAME":"STARLINK-31771","OBJECT_ID":"2024-080V","EPOCH":"2025-08-31T09:54:54.838944","MEAN_MOTION":15.31077485,"ECCENTRICITY":0.00060344,"INCLINATION":43.001,"RA_OF_ASC_NODE":32.3388,"ARG_OF_PERICENTER":305.8506,"MEAN_ANOMALY":54.1786,"EPHEMERIS_TYPE":0,"CLASSIFICATION_TYPE":"U","NORAD_CAT_ID":59620,"ELEMENT_SET_NO":999,"REV_AT_EPOCH":7543,"BSTAR":0.0021626622,"MEAN_MOTION_DOT":0.00066643,"MEAN_MOTION_DDOT":0},{"OBJECT_NAME":"STARLINK-31758","OBJECT_ID":"2024-080W","EPOCH":"2025-08-31T03:10:04.533888","MEAN_MOTION":15.27564076,"ECCENTRICITY":0.000137,"INCLINATION":43.0056,"RA_OF_ASC_NODE":30.2437,"ARG_OF_PERICENTER":275.8315,"MEAN_ANOMALY":84.238,"EPHEMERIS_TYPE":0,"CLASSIFICATION_TYPE":"U","NORAD_CAT_ID":59621,"ELEMENT_SET_NO":999,"REV_AT_EPOCH":7543,"BSTAR":5.9286265e-5,"MEAN_MOTION_DOT":1.369e-5,"MEAN_MOTION_DDOT":0},{"OBJECT_NAME":"STARLINK-31774","OBJECT_ID":"2024-080X","EPOCH":"2025-08-31T02:29:35.626848","MEAN_MOTION":15.2755603,"ECCENTRICITY":9.133e-5,"INCLINATION":43.0017,"RA_OF_ASC_NODE":30.888,"ARG_OF_PERICENTER":293.8373,"MEAN_ANOMALY":66.2383,"EPHEMERIS_TYPE":0,"CLASSIFICATION_TYPE":"U","NORAD_CAT_ID":59622,"ELEMENT_SET_NO":999,"REV_AT_EPOCH":7542,"BSTAR":-4.0687446e-5,"MEAN_MOTION_DOT":-1.38e-5,"MEAN_MOTION_DDOT":0},{"OBJECT_NAME":"STARLINK-31763","OBJECT_ID":"2024-080Y","EPOCH":"2025-08-31T10:49:16.292064","MEAN_MOTION":15.27570682,"ECCENTRICITY":0.000146,"INCLINATION":43.0023,"RA_OF_ASC_NODE":32.6559,"ARG_OF_PERICENTER":277.2026,"MEAN_ANOMALY":82.8659,"EPHEMERIS_TYPE":0,"CLASSIFICATION_TYPE":"U","NORAD_CAT_ID":59623,"ELEMENT_SET_NO":999,"REV_AT_EPOCH":7543,"BSTAR":5.0392362e-5,"MEAN_MOTION_DOT":1.124e-5,"MEAN_MOTION_DDOT":0},{"OBJECT_NAME":"STARLINK-31749","OBJECT_ID":"2024-082A","EPOCH":"2025-08-31T09:37:16.419072","MEAN_MOTION":15.27584716,"ECCENTRICITY":0.00012143,"INCLINATION":42.9982,"RA_OF_ASC_NODE":134.1298,"ARG_OF_PERICENTER":272.1931,"MEAN_ANOMALY":87.8781,"EPHEMERIS_TYPE":0,"CLASSIFICATION_TYPE":"U","NORAD_CAT_ID":59631,"ELEMENT_SET_NO":999,"REV_AT_EPOCH":7591,"BSTAR":0.0001043861,"MEAN_MOTION_DOT":2.612e-5,"MEAN_MOTION_DDOT":0},{"OBJECT_NAME":"STARLINK-31781","OBJECT_ID":"2024-082B","EPOCH":"2025-08-31T08:44:42.274752","MEAN_MOTION":15.2758282,"ECCENTRICITY":0.00012304,"INCLINATION":43.0041,"RA_OF_ASC_NODE":120.5534,"ARG_OF_PERICENTER":295.8174,"MEAN_ANOMALY":64.2551,"EPHEMERIS_TYPE":0,"CLASSIFICATION_TYPE":"U","NORAD_CAT_ID":59632,"ELEMENT_SET_NO":999,"REV_AT_EPOCH":7590,"BSTAR":1.845441e-6,"MEAN_MOTION_DOT":-2.11e-6,"MEAN_MOTION_DDOT":0}]
