STARLINK-31729          
1 59610U 24080K   25243.43979906  .00001210  00000+0  53488-4 0  9993
2 59610  43.0019  29.1138 0001137 277.3977  82.6745 15.27574235 75474
STARLINK-31448          
1 59611U 24080L   25243.42439669 -.00001820  00000+0 -56688-4 0  9994
2 59611  43.0023  28.9962 0001242 281.6908  78.3804 15.27550653 75477
STARLINK-31748          
1 59612U 24080M   25243.40510315  .00002882  00000+0  11425-3 0  9997
2 59612  43.0031  28.8533 0001062 241.9073 118.1672 15.27571587 76647
STARLINK-31746          
1 59613U 24080N   25243.13244881  .00000999  00000+0  45828-4 0  9992
2 59613  43.0025  37.9988 0001216 285.3798  74.6919 15.27573455 75345
STARLINK-31762          
1 59614U 24080P   25243.43160973  .00002764  00000+0  10994-3 0  9992
2 59614  42.9968  32.5120 0001274  80.7228 279.3767 15.27574478 75439
STARLINK-31761          
1 59615U 24080Q   25243.13422017  .00000762  00000+0  37217-4 0  9994
2 59615  43.0061  34.5289 0001272 273.3019  86.7687 15.27569934 75386
STARLINK-31768          
1 59616U 24080R   25242.70977916  .00000001  00000+0  95691-5 0  9997
2 59616  43.0007  36.5513 0000907 269.6393  90.4354 15.27584808 75320
STARLINK-31769          
1 59617U 24080S   25243.44702294  .00002009  00000+0  82530-4 0  9992
2 59617  43.0012  32.6253 0001297 272.7956  87.2747 15.27578210 75430
STARLINK-31784          
1 59618U 24080T   25243.11832855  .00002301  00000+0  93128-4 0  9994
2 59618  43.0034  37.9152 0001048 299.5541  60.5206 15.27567697 75343
STARLINK-31777          
1 59619U 24080U   25243.44912154  .00000514  00000+0  28236-4 0  9994
2 59619  43.0031  36.0993 0001758 275.1468  84.9183 15.27558268 75393
STARLINK-31771          
1 59620U 24080V   25243.41313471  .00066643  00000+0  21627-2 0  9990
2 59620  43.0010  32.3388 0006034 305.8506  54.1786 15.31077485 75430
STARLINK-31758          
1 59621U 24080W   25243.13199692  .00001369  00000+0  59286-4 0  9995
2 59621  43.0056  30.2437 0001370 275.8315  84.2380 15.27564076 75431
STARLINK-31774          
1 59622U 24080X   25243.10388457 -.00001380  00000+0 -40687-4 0  9992
2 59622  43.0017  30.8880 0000913 293.8373  66.2383 15.27556030 75426
STARLINK-31763          
1 59623U 24080Y   25243.45088301  .00001124  00000+0  50392-4 0  9994
2 59623  43.0023  32.6559 0001460 277.2026  82.8659 15.27570682 75436
STARLINK-31749          
1 59631U 24082A   25243.40088448  .00002612  00000+0  10439-3 0  9992
2 59631  42.9982 134.1298 0001214 272.1931  87.8781 15.27584716 75918
STARLINK-31781          
1 59632U 24082B   25243.36437818 -.00000211  00000+0  18454-5 0  9998
2 59632  43.0041 120.5534 0001230 295.8174  64.2551 15.27582820 75905
